GSAT0101 (GALILEO-PFM)  
1 37846U 11060A   25055.95473640 -.00000079  00000+0  00000+0 0  9996
2 37846  57.1125 354.6953 0004079   0.0775 359.9216  1.70475631 82981
GSAT0102 (GALILEO-FM2)  
1 37847U 11060B   25056.17829535 -.00000079  00000+0  00000+0 0  9990
2 37847  57.1130 354.6895 0005353 334.9817 207.5260  1.70475822 82995
GSAT0103 (GALILEO-FM3)  
1 38857U 12055A   25053.64806726  .00000006  00000+0  00000+0 0  9992
2 38857  55.5257 114.7188 0005080 272.5081  87.5022  1.70473490 76833
GSAT0201 (GALILEO 5)    
1 40128U 14050A   25054.79609615 -.00000001  00000+0  00000+0 0  9994
2 40128  49.3929 292.9177 1620668 160.9174 205.9666  1.85519746 69440
GSAT0202 (GALILEO 6)    
1 40129U 14050B   25056.13139785  .00000005  00000+0  00000+0 0  9994
2 40129  49.4074 291.9438 1620470 161.7496 204.8491  1.85520432 71631
GSAT0203 (GALILEO 7)    
1 40544U 15017A   25055.14687909 -.00000080  00000+0  00000+0 0  9999
2 40544  56.9063 354.6168 0005253 287.0157  72.9261  1.70475541 61059
GSAT0204 (GALILEO 8)    
1 40545U 15017B   25053.05534101 -.00000082  00000+0  00000+0 0  9995
2 40545  56.9139 354.6903 0004392 280.8367  79.1141  1.70475453 24066
GSAT0205 (GALILEO 9)    
1 40889U 15045A   25054.58361569  .00000080  00000+0  00000+0 0  9999
2 40889  55.1125 234.8223 0006229  47.7234 312.3284  1.70473611 58859
GSAT0206 (GALILEO 10)   
1 40890U 15045B   25055.97738834  .00000076  00000+0  00000+0 0  9993
2 40890  55.1109 234.7790 0004140  49.6474 310.3814  1.70473650 58904
GSAT0209 (GALILEO 12)   
1 41174U 15079A   25054.38644581  .00000009  00000+0  00000+0 0  9991
2 41174  55.5453 114.4099 0004110 314.0884  45.9493  1.70474700 56610
GSAT0208 (GALILEO 11)   
1 41175U 15079B   25055.77954699  .00000016  00000+0  00000+0 0  9998
2 41175  55.5444 114.3690 0003778 311.2655  48.7807  1.70474539 57050
GSAT0211 (GALILEO 14)   
1 41549U 16030A   25052.97023279  .00000080  00000+0  00000+0 0  9992
2 41549  55.2610 234.9004 0003706  25.7694 334.2499  1.70473716 54486
GSAT0210 (GALILEO 13)   
1 41550U 16030B   25054.98778401  .00000080  00000+0  00000+0 0  9991
2 41550  55.2596 234.8432 0001042 163.0587 196.9426  1.70473852 54511
GSAT0207 (GALILEO 15)   
1 41859U 16069A   25055.85308349  .00000015  00000+0  00000+0 0  9990
2 41859  55.2129 114.3094 0004599 297.5096  62.5226  1.70474597 51261
GSAT0212 (GALILEO 16)   
1 41860U 16069B   25052.77416254  .00000003  00000+0  00000+0 0  9992
2 41860  55.2089 114.3907 0003027 323.4430  36.6029  1.70474762 51466
GSAT0213 (GALILEO 17)   
1 41861U 16069C   25055.48864955  .00000013  00000+0  00000+0 0  9990
2 41861  55.2127 114.3226 0004929 279.6878  80.3333  1.70475123 51370
GSAT0214 (GALILEO 18)   
1 41862U 16069D   25053.87440359  .00000006  00000+0  00000+0 0  9992
2 41862  55.2103 114.3604 0003949 281.2676  78.7572  1.70474942 51476
GSAT0215 (GALILEO 19)   
1 43055U 17079A   25055.53768620  .00000078  00000+0  00000+0 0  9998
2 43055  55.2389 234.6481 0000782  38.5585 321.4421  1.70474345 44842
GSAT0216 (GALILEO 20)   
1 43056U 17079B   25054.06945049  .00000081  00000+0  00000+0 0  9992
2 43056  55.2391 234.6884 0001554 326.9199  33.0704  1.70474496 44843
GSAT0217 (GALILEO 21)   
1 43057U 17079C   25056.63633638  .00000072  00000+0  00000+0 0  9996
2 43057  55.2356 234.6159 0002005 357.7916   2.1956  1.70474340 44867
GSAT0218 (GALILEO 22)   
1 43058U 17079D   25053.92348895  .00000081  00000+0  00000+0 0  9994
2 43058  55.2366 234.6884 0001755 310.1186  49.8662  1.70474430 44847
GSAT0221 (GALILEO 25)   
1 43564U 18060A   25056.17130061 -.00000079  00000+0  00000+0 0  9999
2 43564  57.2872 354.6533 0005671 302.3394  57.6048  1.70475406 41039
GSAT0222 (GALILEO 26)   
1 43565U 18060B   25052.28407726 -.00000084  00000+0  00000+0 0  9999
2 43565  57.2915 354.7604 0004496 279.8928  80.0567  1.70475241 41014
GSAT0219 (GALILEO 23)   
1 43566U 18060C   25053.67876403 -.00000081  00000+0  00000+0 0  9993
2 43566  57.2906 354.7245 0005236 307.4218  52.5303  1.70475473 41018
GSAT0220 (GALILEO 24)   
1 43567U 18060D   25054.48612946 -.00000080  00000+0  00000+0 0  9993
2 43567  57.2904 354.7036 0005393 302.6909  57.2564  1.70475478 41019
GSAT0223 (GALILEO 27)   
1 49809U 21116A   25054.04481351 -.00000081  00000+0  00000+0 0  9991
2 49809  57.2804 354.6081 0002629 272.8768 266.8103  1.70475617 20011
GSAT0224 (GALILEO 28)   
1 49810U 21116B   25054.44456280 -.00000080  00000+0  00000+0 0  9999
2 49810  57.2812 354.5959 0002050 290.9991 246.5599  1.70475602 20043
GSAT0225 (GALILEO 29)   
1 59598U 24079A   25054.75233322  .00000009  00000+0  00000+0 0  9998
2 59598  54.8292 114.4657 0003035 233.9454 124.1018  1.70475095  5153
GSAT0227 (GALILEO 30)   
1 59600U 24079C   25053.17921751  .00000003  00000+0  00000+0 0  9991
2 59600  54.8239 114.5094 0001057 147.4723 212.6011  1.70474997  5183
GSAT0232 (GALILEO 32)   
1 61182U 24167A   25056.08929428  .00000076  00000+0  00000+0 0  9999
2 61182  55.3470 234.4014 0002141 176.0509   5.2721  1.70473925  2746
GSAT0226 (GALILEO 31)   
1 61183U 24167B   25055.23628616  .00000079  00000+0  00000+0 0  9994
2 61183  55.3461 234.4308 0002037 112.2654  18.0956  1.70474048  2705
